CCSDS_OMM_VERS = 2.0
CREATION_DATE  = 
ORIGINATOR     = 

OBJECT_NAME    = ISS OBJECT XW
OBJECT_ID      = 1998-067XW
CENTER_NAME    = EARTH
REF_FRAME      = TEME
TIME_SYSTEM    = UTC
MEAN_ELEMENT_THEORY = SGP/SGP4

EPOCH          = 2026-02-21T11:58:53.638752
MEAN_MOTION    = 15.64298565
ECCENTRICITY   = .00036436
INCLINATION    = 51.6256
RA_OF_ASC_NODE = 147.7860
ARG_OF_PERICENTER = 8.3578
MEAN_ANOMALY   = 351.7476

EPHEMERIS_TYPE = 0
CLASSIFICATION_TYPE = U
NORAD_CAT_ID   = 66910
ELEMENT_SET_NO = 999
REV_AT_EPOCH   = 1264
BSTAR          = .10353933E-2
MEAN_MOTION_DOT = .101624E-2
MEAN_MOTION_DDOT = 0

CCSDS_OMM_VERS = 2.0
CREATION_DATE  = 
ORIGINATOR     = 

OBJECT_NAME    = ISS OBJECT XX
OBJECT_ID      = 1998-067XX
CENTER_NAME    = EARTH
REF_FRAME      = TEME
TIME_SYSTEM    = UTC
MEAN_ELEMENT_THEORY = SGP/SGP4

EPOCH          = 2026-02-21T11:46:44.763168
MEAN_MOTION    = 15.68283857
ECCENTRICITY   = .00056218
INCLINATION    = 51.6239
RA_OF_ASC_NODE = 146.9740
ARG_OF_PERICENTER = 0.2156
MEAN_ANOMALY   = 359.8842

EPHEMERIS_TYPE = 0
CLASSIFICATION_TYPE = U
NORAD_CAT_ID   = 66911
ELEMENT_SET_NO = 999
REV_AT_EPOCH   = 1264
BSTAR          = .1510246E-2
MEAN_MOTION_DOT = .176042E-2
MEAN_MOTION_DDOT = 0

CCSDS_OMM_VERS = 2.0
CREATION_DATE  = 
ORIGINATOR     = 

OBJECT_NAME    = ISS OBJECT XY
OBJECT_ID      = 1998-067XY
CENTER_NAME    = EARTH
REF_FRAME      = TEME
TIME_SYSTEM    = UTC
MEAN_ELEMENT_THEORY = SGP/SGP4

EPOCH          = 2026-02-21T12:34:52.924224
MEAN_MOTION    = 15.60717230
ECCENTRICITY   = .00017452
INCLINATION    = 51.6290
RA_OF_ASC_NODE = 148.7141
ARG_OF_PERICENTER = 12.5205
MEAN_ANOMALY   = 347.5831

EPHEMERIS_TYPE = 0
CLASSIFICATION_TYPE = U
NORAD_CAT_ID   = 66912
ELEMENT_SET_NO = 999
REV_AT_EPOCH   = 1262
BSTAR          = .83556304E-3
MEAN_MOTION_DOT = .70899E-3
MEAN_MOTION_DDOT = 0

CCSDS_OMM_VERS = 2.0
CREATION_DATE  = 
ORIGINATOR     = 

OBJECT_NAME    = ISS OBJECT XZ
OBJECT_ID      = 1998-067XZ
CENTER_NAME    = EARTH
REF_FRAME      = TEME
TIME_SYSTEM    = UTC
MEAN_ELEMENT_THEORY = SGP/SGP4

EPOCH          = 2026-02-21T11:48:31.702176
MEAN_MOTION    = 15.50458827
ECCENTRICITY   = .00100736
INCLINATION    = 51.6314
RA_OF_ASC_NODE = 152.2476
ARG_OF_PERICENTER = 132.3559
MEAN_ANOMALY   = 227.8285

EPHEMERIS_TYPE = 0
CLASSIFICATION_TYPE = U
NORAD_CAT_ID   = 67683
ELEMENT_SET_NO = 999
REV_AT_EPOCH   = 227
BSTAR          = .68048379E-3
MEAN_MOTION_DOT = .3928E-3
MEAN_MOTION_DDOT = 0

CCSDS_OMM_VERS = 2.0
CREATION_DATE  = 
ORIGINATOR     = 

OBJECT_NAME    = GXIBA-1
OBJECT_ID      = 1998-067YA
CENTER_NAME    = EARTH
REF_FRAME      = TEME
TIME_SYSTEM    = UTC
MEAN_ELEMENT_THEORY = SGP/SGP4

EPOCH          = 2026-02-21T11:36:49.944096
MEAN_MOTION    = 15.51722963
ECCENTRICITY   = .00117035
INCLINATION    = 51.6313
RA_OF_ASC_NODE = 152.1932
ARG_OF_PERICENTER = 125.0335
MEAN_ANOMALY   = 235.1755

EPHEMERIS_TYPE = 0
CLASSIFICATION_TYPE = U
NORAD_CAT_ID   = 67684
ELEMENT_SET_NO = 999
REV_AT_EPOCH   = 227
BSTAR          = .12030987E-2
MEAN_MOTION_DOT = .73407E-3
MEAN_MOTION_DDOT = 0

CCSDS_OMM_VERS = 2.0
CREATION_DATE  = 
ORIGINATOR     = 

OBJECT_NAME    = CORAL
OBJECT_ID      = 1998-067YB
CENTER_NAME    = EARTH
REF_FRAME      = TEME
TIME_SYSTEM    = UTC
MEAN_ELEMENT_THEORY = SGP/SGP4

EPOCH          = 2026-02-21T11:46:22.341504
MEAN_MOTION    = 15.50667475
ECCENTRICITY   = .00120287
INCLINATION    = 51.6309
RA_OF_ASC_NODE = 152.2369
ARG_OF_PERICENTER = 128.6764
MEAN_ANOMALY   = 231.5303

EPHEMERIS_TYPE = 0
CLASSIFICATION_TYPE = U
NORAD_CAT_ID   = 67685
ELEMENT_SET_NO = 999
REV_AT_EPOCH   = 227
BSTAR          = .74045553E-3
MEAN_MOTION_DOT = .43161E-3
MEAN_MOTION_DDOT = 0

CCSDS_OMM_VERS = 2.0
CREATION_DATE  = 
ORIGINATOR     = 

OBJECT_NAME    = ISS OBJECT YC
OBJECT_ID      = 1998-067YC
CENTER_NAME    = EARTH
REF_FRAME      = TEME
TIME_SYSTEM    = UTC
MEAN_ELEMENT_THEORY = SGP/SGP4

EPOCH          = 2026-02-21T11:44:10.470912
MEAN_MOTION    = 15.50924553
ECCENTRICITY   = .00077168
INCLINATION    = 51.6316
RA_OF_ASC_NODE = 152.2270
ARG_OF_PERICENTER = 100.0521
MEAN_ANOMALY   = 260.1340

EPHEMERIS_TYPE = 0
CLASSIFICATION_TYPE = U
NORAD_CAT_ID   = 67686
ELEMENT_SET_NO = 999
REV_AT_EPOCH   = 227
BSTAR          = .87490753E-3
MEAN_MOTION_DOT = .51525E-3
MEAN_MOTION_DDOT = 0

CCSDS_OMM_VERS = 2.0
CREATION_DATE  = 
ORIGINATOR     = 

OBJECT_NAME    = LEOPARD
OBJECT_ID      = 1998-067YD
CENTER_NAME    = EARTH
REF_FRAME      = TEME
TIME_SYSTEM    = UTC
MEAN_ELEMENT_THEORY = SGP/SGP4

EPOCH          = 2026-02-21T13:20:04.442208
MEAN_MOTION    = 15.50585177
ECCENTRICITY   = .0007798
INCLINATION    = 51.6314
RA_OF_ASC_NODE = 151.9223
ARG_OF_PERICENTER = 102.9364
MEAN_ANOMALY   = 257.2497

EPHEMERIS_TYPE = 0
CLASSIFICATION_TYPE = U
NORAD_CAT_ID   = 67687
ELEMENT_SET_NO = 999
REV_AT_EPOCH   = 220
BSTAR          = .67588301E-3
MEAN_MOTION_DOT = .39157E-3
MEAN_MOTION_DDOT = 0

CCSDS_OMM_VERS = 2.0
CREATION_DATE  = 
ORIGINATOR     = 

OBJECT_NAME    = ISS OBJECT YE
OBJECT_ID      = 1998-067YE
CENTER_NAME    = EARTH
REF_FRAME      = TEME
TIME_SYSTEM    = UTC
MEAN_ELEMENT_THEORY = SGP/SGP4

EPOCH          = 2026-02-21T11:45:04.654944
MEAN_MOTION    = 15.50807123
ECCENTRICITY   = .00076999
INCLINATION    = 51.6323
RA_OF_ASC_NODE = 152.2323
ARG_OF_PERICENTER = 100.5477
MEAN_ANOMALY   = 259.6380

EPHEMERIS_TYPE = 0
CLASSIFICATION_TYPE = U
NORAD_CAT_ID   = 67688
ELEMENT_SET_NO = 999
REV_AT_EPOCH   = 219
BSTAR          = .8084201E-3
MEAN_MOTION_DOT = .47348E-3
MEAN_MOTION_DDOT = 0

CCSDS_OMM_VERS = 2.0
CREATION_DATE  = 
ORIGINATOR     = 

OBJECT_NAME    = CREW DRAGON 12
OBJECT_ID      = 2026-031A
CENTER_NAME    = EARTH
REF_FRAME      = TEME
TIME_SYSTEM    = UTC
MEAN_ELEMENT_THEORY = SGP/SGP4

EPOCH          = 2026-02-21T13:43:10.706016
MEAN_MOTION    = 15.48184707
ECCENTRICITY   = .00085206
INCLINATION    = 51.6321
RA_OF_ASC_NODE = 152.0271
ARG_OF_PERICENTER = 119.1208
MEAN_ANOMALY   = 241.0634

EPHEMERIS_TYPE = 0
CLASSIFICATION_TYPE = U
NORAD_CAT_ID   = 67796
ELEMENT_SET_NO = 999
REV_AT_EPOCH   = 55380
BSTAR          = .20534485E-3
MEAN_MOTION_DOT = .10573E-3
MEAN_MOTION_DDOT = 0

